[{"estimated_diameter":{"feet":{"estimated_diameter_max":3236.1230737181,"estimated_diameter_min":1447.2382352778},"kilometers":{"estimated_diameter_max":0.9863702813,"estimated_diameter_min":0.4411182},"meters":{"estimated_diameter_max":986.3702813054,"estimated_diameter_min":441.1181999969},"miles":{"estimated_diameter_max":0.6129018881,"estimated_diameter_min":0.2740980571}},"neo_reference_id":"2454266","nasa_jpl_url":"http:\/\/ssd.jpl.nasa.gov\/sbdb.cgi?sstr=2454266","is_potentially_hazardous_asteroid":false,"orbital_data":{"inclination":"19.04580831051742","mean_anomaly":"148.7289716647348","orbit_determination_date":"2017-06-25 06:19:18","minimum_orbit_intersection":".285183","perihelion_argument":"332.2246141532641","orbit_class":{"orbit_class_description":"Near-Earth asteroid orbits similar to that of 1221 Amor","orbit_class_range":"1.017 AU < q (perihelion) < 1.3 AU","orbit_class_type":"AMO"},"last_observation_date":"2017-06-24","eccentricity":".2908883117242878","perihelion_distance":"1.247586386348099","aphelion_distance":"2.271143898247127","perihelion_time":"2458248.351797393072","first_observation_date":"2008-10-01","orbit_id":"27","data_arc_in_days":3188,"jupiter_tisserand_invariant":"4.009","semi_major_axis":"1.759365142297613","orbital_period":"852.3783330141405","epoch_osculation":"2458600.5","orbit_uncertainty":"0","ascending_node_longitude":"109.7550081651251","mean_motion":".4223476665895352","observations_used":106,"equinox":"J2000"},"is_sentry_object":false,"name":"454266 (2014 FM7)","absolute_magnitude_h":18.9,"links":{"self":"http:\/\/www.neowsapp.com\/rest\/v1\/neo\/2454266"},"id":"2454266","designation":"454266","close_approach_data":[]},{"estimated_diameter":{"feet":{"estimated_diameter_max":3715.566426699,"estimated_diameter_min":1661.651821003},"kilometers":{"estimated_diameter_max":1.1325046106,"estimated_diameter_min":0.5064714588},"meters":{"estimated_diameter_max":1132.5046106177,"estimated_diameter_min":506.4714588346},"miles":{"estimated_diameter_max":0.7037055224,"estimated_diameter_min":0.3147066768}},"neo_reference_id":"3012393","nasa_jpl_url":"http:\/\/ssd.jpl.nasa.gov\/sbdb.cgi?sstr=3012393","is_potentially_hazardous_asteroid":true,"orbital_data":{"inclination":"24.73433191482803","mean_anomaly":"346.3189367247112","orbit_determination_date":"2017-04-06 09:18:28","minimum_orbit_intersection":".023863","perihelion_argument":"75.57980383566122","orbit_class":{"orbit_class_description":"Near-Earth asteroid orbits which cross the Earth\u2019s orbit similar to that of 1862 Apollo","orbit_class_range":"a (semi-major axis) > 1.0 AU; q (perihelion) < 1.017 AU","orbit_class_type":"APO"},"last_observation_date":"1979-12-15","eccentricity":".7084572219505028","perihelion_distance":".6495979641330815","aphelion_distance":"3.806680928995904","perihelion_time":"2444267.666752772366","first_observation_date":"1979-12-11","orbit_id":"12","data_arc_in_days":4,"jupiter_tisserand_invariant":"3.174","semi_major_axis":"2.228139446564493","orbital_period":"1214.820124987756","epoch_osculation":"2444221.5","orbit_uncertainty":"9","ascending_node_longitude":"86.05548731492976","mean_motion":".2963401680587308","observations_used":18,"equinox":"J2000"},"is_sentry_object":false,"name":"(1979 XB)","absolute_magnitude_h":18.6,"links":{"self":"http:\/\/www.neowsapp.com\/rest\/v1\/neo\/3012393"},"id":"3012393","designation":"1979 XB","close_approach_data":[{"relative_velocity":{"kilometers_per_hour":"82895.208318346","kilometers_per_second":"23.0264467551","miles_per_hour":"51507.8587464745"},"orbiting_body":"Earth","close_approach_date":"1979-12-17","epoch_date_close_approach":314277780000,"close_approach_date_full":"1979-Dec-17 11:23","miss_distance":{"astronomical":"0.0365907087","kilometers":"5473892.083310469","lunar":"14.2337856843","miles":"3401318.8193197122"}}]},{"estimated_diameter":{"feet":{"estimated_diameter_max":389.0675677576,"estimated_diameter_min":173.9963058693},"kilometers":{"estimated_diameter_max":0.1185877909,"estimated_diameter_min":0.0530340723},"meters":{"estimated_diameter_max":118.5877908577,"estimated_diameter_min":53.0340723319},"miles":{"estimated_diameter_max":0.0736870142,"estimated_diameter_min":0.0329538346}},"neo_reference_id":"3092102","nasa_jpl_url":"http:\/\/ssd.jpl.nasa.gov\/sbdb.cgi?sstr=3092102","is_potentially_hazardous_asteroid":false,"orbital_data":{"inclination":"3.684232740279844","mean_anomaly":"336.3187318855389","orbit_determination_date":"2017-04-06 09:18:26","minimum_orbit_intersection":".0219335","perihelion_argument":"97.00218625387181","orbit_class":{"orbit_class_description":"Near-Earth asteroid orbits which cross the Earth\u2019s orbit similar to that of 1862 Apollo","orbit_class_range":"a (semi-major axis) > 1.0 AU; q (perihelion) < 1.017 AU","orbit_class_type":"APO"},"last_observation_date":"1990-11-06","eccentricity":".5280628858670434","perihelion_distance":".8069488304654528","aphelion_distance":"2.612781495037682","perihelion_time":"2448245.220949104797","first_observation_date":"1990-10-22","orbit_id":"12","data_arc_in_days":15,"jupiter_tisserand_invariant":"4.015","semi_major_axis":"1.709865162751567","orbital_period":"816.6598842701781","epoch_osculation":"2448191.5","orbit_uncertainty":"9","ascending_node_longitude":"8.467996167120713","mean_motion":".440819987529717","observations_used":22,"equinox":"J2000"},"is_sentry_object":false,"name":"(1990 UN)","absolute_magnitude_h":23.5,"links":{"self":"http:\/\/www.neowsapp.com\/rest\/v1\/neo\/3092102"},"id":"3092102","designation":"1990 UN","close_approach_data":[{"relative_velocity":{"kilometers_per_hour":"43476.0907240526","kilometers_per_second":"12.0766918678","miles_per_hour":"27014.3520390648"},"orbiting_body":"Earth","close_approach_date":"1990-11-07","epoch_date_close_approach":657936480000,"close_approach_date_full":"1990-Nov-07 00:08","miss_distance":{"astronomical":"0.0421269898","kilometers":"6302107.943591726","lunar":"16.3873990322","miles":"3915948.2912127788"}}]},{"estimated_diameter":{"feet":{"estimated_diameter_max":354.8338390368,"estimated_diameter_min":158.6865169607},"kilometers":{"estimated_diameter_max":0.1081533507,"estimated_diameter_min":0.0483676488},"meters":{"estimated_diameter_max":108.1533506775,"estimated_diameter_min":48.3676488219},"miles":{"estimated_diameter_max":0.0672033557,"estimated_diameter_min":0.0300542543}},"neo_reference_id":"3092109","nasa_jpl_url":"http:\/\/ssd.jpl.nasa.gov\/sbdb.cgi?sstr=3092109","is_potentially_hazardous_asteroid":false,"orbital_data":{"inclination":"5.248037986499639","mean_anomaly":"11.95993407308945","orbit_determination_date":"2017-04-06 09:18:23","minimum_orbit_intersection":".047372","perihelion_argument":"308.4176762036574","orbit_class":{"orbit_class_description":"Near-Earth asteroid orbits which cross the Earth\u2019s orbit similar to that of 1862 Apollo","orbit_class_range":"a (semi-major axis) > 1.0 AU; q (perihelion) < 1.017 AU","orbit_class_type":"APO"},"last_observation_date":"1991-12-15","eccentricity":".5678585855138963","perihelion_distance":".9794119628423262","aphelion_distance":"3.553418865265314","perihelion_time":"2448556.096792745014","first_observation_date":"1991-12-04","orbit_id":"12","data_arc_in_days":11,"jupiter_tisserand_invariant":"3.378","semi_major_axis":"2.26641541405382","orbital_period":"1246.257255324879","epoch_osculation":"2448597.5","orbit_uncertainty":"9","ascending_node_longitude":"77.2426948442412","mean_motion":".2888649181072602","observations_used":8,"equinox":"J2000"},"is_sentry_object":false,"name":"(1991 XA)","absolute_magnitude_h":23.7,"links":{"self":"http:\/\/www.neowsapp.com\/rest\/v1\/neo\/3092109"},"id":"3092109","designation":"1991 XA","close_approach_data":[{"relative_velocity":{"kilometers_per_hour":"36613.9196599518","kilometers_per_second":"10.1705332389","miles_per_hour":"22750.4658020406"},"orbiting_body":"Earth","close_approach_date":"1991-11-18","epoch_date_close_approach":690465840000,"close_approach_date_full":"1991-Nov-18 12:04","miss_distance":{"astronomical":"0.058850331","kilometers":"8803884.16639497","lunar":"22.892778759","miles":"5470479.951471786"}}]}]
